NORAD_CAT_ID,OBJECT_NAME,OBJECT_TYPE,EPOCH,MEAN_MOTION,ECCENTRICITY,INCLINATION,RA_OF_ASC_NODE,ARG_OF_PERICENTER,MEAN_ANOMALY,BSTAR,MEAN_MOTION_DOT,MEAN_MOTION_DDOT,TLE_LINE0,TLE_LINE1,TLE_LINE2,SEMIMAJOR_AXIS,PERIOD,APOGEE,PERIGEE,DECAYED
56449.0,STARLINK-5993,PAYLOAD,2023-08-26 11:28:32,14.98325777,0.0003164,70.0005,319.9619,262.582,97.498,2.7237e-06,-6.1e-07,0.0,0 STARLINK-5993,1 56449U 23064B   23238.47815018 -.00000061  00000-0  27237-5 0  9999,2 56449  70.0005 319.9619 0003164 262.5820  97.4980 14.98325777 16501,6950.206,96.107,574.27,569.872,0.0
56449.0,STARLINK-5993,PAYLOAD,2023-08-26 22:41:28,14.98332822,0.0003287,70.0003,318.7839,263.498,96.5805,4.1748e-05,4.05e-06,0.0,0 STARLINK-5993,1 56449U 23064B   23238.94546397  .00000405  00000-0  41748-4 0  9995,2 56449  70.0003 318.7839 0003287 263.4980  96.5805 14.98332822 16935,6950.184,96.107,574.334,569.765,0.0
56449.0,STARLINK-5993,PAYLOAD,2023-08-27 09:54:24,14.9832886,0.0003552,69.9996,317.605,269.5863,90.4889,-2.0279e-05,-3.35e-06,0.0,0 STARLINK-5993,1 56449U 23064B   23239.41278859 -.00000335  00000-0 -20279-4 0  9993,2 56449  69.9996 317.6050 0003552 269.5863  90.4889 14.98328860 17009,6950.196,96.107,574.53,569.593,0.0
56449.0,STARLINK-5993,PAYLOAD,2023-08-27 14:42:48,14.98334386,0.0003614,69.9994,317.0994,269.5531,90.5213,2.1523e-05,1.64e-06,0.0,0 STARLINK-5993,1 56449U 23064B   23239.61306354  .00000164  00000-0  21523-4 0  9998,2 56449  69.9994 317.0994 0003614 269.5531  90.5213 14.98334386 16673,6950.179,96.107,574.556,569.533,0.0
56449.0,STARLINK-5993,PAYLOAD,2023-08-28 11:32:33,14.9832732,0.0003603,69.9992,314.9112,270.258,89.8166,6.8073e-06,-1.2e-07,0.0,0 STARLINK-5993,1 56449U 23064B   23240.48094833 -.00000012  00000-0  68073-5 0  9996,2 56449  69.9992 314.9112 0003603 270.2580  89.8166 14.98327320 17163,6950.201,96.107,574.57,569.562,0.0
56449.0,STARLINK-5993,PAYLOAD,2023-08-28 14:44:49,14.98330645,0.0003442,69.9993,314.5749,268.2696,91.8069,6.1648e-05,6.43e-06,0.0,0 STARLINK-5993,1 56449U 23064B   23240.61446453  .00000643  00000-0  61648-4 0  9999,2 56449  69.9993 314.5749 0003442 268.2696  91.8069 14.98330645 16823,6950.191,96.107,574.448,569.664,0.0
56449.0,STARLINK-5993,PAYLOAD,2023-08-29 14:46:48,14.98411139,0.0004014,69.9992,312.0492,267.5476,92.5223,-0.0013195,-0.00015836,0.0,0 STARLINK-5993,1 56449U 23064B   23241.61584358 -.00015836  00000-0 -13195-2 0  9991,2 56449  69.9992 312.0492 0004014 267.5476  92.5223 14.98411139 17339,6949.942,96.102,574.597,569.017,0.0
56449.0,STARLINK-5993,PAYLOAD,2023-08-30 08:24:19,14.98329013,0.0003555,69.9992,310.1977,270.5351,89.54,-3.2556e-05,-4.82e-06,0.0,0 STARLINK-5993,1 56449U 23064B   23242.35022728 -.00000482  00000-0 -32556-4 0  9996,2 56449  69.9992 310.1977 0003555 270.5351  89.5400 14.98329013 17445,6950.196,96.107,574.532,569.59,0.0
56449.0,STARLINK-5993,PAYLOAD,2023-08-30 13:12:43,14.98330576,0.0003471,69.9994,309.6927,270.5161,89.56,-4.6777e-06,-1.49e-06,0.0,0 STARLINK-5993,1 56449U 23064B   23242.55050556 -.00000149  00000-0 -46777-5 0  9999,2 56449  69.9994 309.6927 0003471 270.5161  89.5600 14.98330576 17113,6950.191,96.107,574.469,569.644,0.0
56449.0,STARLINK-5993,PAYLOAD,2023-09-01 10:04:29,14.98334076,0.0003607,69.9988,304.979,270.1995,89.8751,4.2238e-05,4.11e-06,0.0,0 STARLINK-5993,1 56449U 23064B   23244.41978173  .00000411  00000-0  42238-4 0  9997,2 56449  69.9988 304.9790 0003607 270.1995  89.8751 14.98334076 17753,6950.18,96.107,574.552,569.538,0.0
56449.0,STARLINK-5993,PAYLOAD,2023-09-01 13:16:45,14.98335698,0.0003591,69.9988,304.6423,270.1112,89.9636,5.9409e-05,6.16e-06,0.0,0 STARLINK-5993,1 56449U 23064B   23244.55329991  .00000616  00000-0  59409-4 0  9995,2 56449  69.9988 304.6423 0003591 270.1112  89.9636 14.98335698 17413,6950.175,96.107,574.536,569.544,0.0
56449.0,STARLINK-5993,PAYLOAD,2023-09-01 21:17:26,14.98326112,0.0003672,69.9987,303.8007,270.7324,89.3414,-3.4923e-05,-5.1e-06,0.0,0 STARLINK-5993,1 56449U 23064B   23244.88710691 -.00000510  00000-0 -34923-4 0  9991,2 56449  69.9987 303.8007 0003672 270.7324  89.3414 14.98326112 17466,6950.205,96.107,574.622,569.518,0.0
56449.0,STARLINK-5993,PAYLOAD,2023-09-02 02:05:50,14.9833133,0.0003586,69.9986,303.2959,270.0431,90.0317,-5.2747e-05,-7.22e-06,0.0,0 STARLINK-5993,1 56449U 23064B   23245.08738642 -.00000722  00000-0 -52747-4 0  9999,2 56449  69.9986 303.2959 0003586 270.0431  90.0317 14.98331330 17853,6950.189,96.107,574.546,569.561,0.0
56449.0,STARLINK-5993,PAYLOAD,2023-09-02 13:18:46,14.98336892,0.0003614,69.9985,302.1173,269.125,90.9495,1.2401e-05,5.5e-07,0.0,0 STARLINK-5993,1 56449U 23064B   23245.55469951  .00000055  00000-0  12401-4 0  9995,2 56449  69.9985 302.1173 0003614 269.1250  90.9495 14.98336892 17560,6950.172,96.107,574.548,569.525,0.0
56449.0,STARLINK-5993,PAYLOAD,2023-09-02 16:31:01,14.98339329,0.0003617,69.9984,301.7807,269.1484,90.9261,3.8539e-05,3.67e-06,0.0,0 STARLINK-5993,1 56449U 23064B   23245.68821657  .00000367  00000-0  38539-4 0  9990,2 56449  69.9984 301.7807 0003617 269.1484  90.9261 14.98339329 17941,6950.164,96.106,574.543,569.515,0.0
56449.0,STARLINK-5993,PAYLOAD,2023-09-02 21:19:26,14.98338596,0.0003615,69.9984,301.2757,269.2419,90.8326,4.4458e-05,4.38e-06,0.0,0 STARLINK-5993,1 56449U 23064B   23245.88849540  .00000438  00000-0  44458-4 0  9999,2 56449  69.9984 301.2757 0003615 269.2419  90.8326 14.98338596 17617,6950.166,96.106,574.544,569.519,0.0
56449.0,STARLINK-5993,PAYLOAD,2023-09-03 02:07:50,14.98331447,0.0003601,69.9984,300.7708,269.0104,91.0643,-4.6378e-05,-6.46e-06,0.0,0 STARLINK-5993,1 56449U 23064B   23246.08878244 -.00000646  00000-0 -46378-4 0  9991,2 56449  69.9984 300.7708 0003601 269.0104  91.0643 14.98331447 18008,6950.188,96.107,574.556,569.551,0.0
56449.0,STARLINK-5993,PAYLOAD,2023-09-03 13:20:46,14.98336619,0.0003587,69.9983,299.5924,268.9927,91.0821,1.3629e-05,7e-07,0.0,0 STARLINK-5993,1 56449U 23064B   23246.55609626  .00000070  00000-0  13629-4 0  9991,2 56449  69.9983 299.5924 0003587 268.9927  91.0821 14.98336619 17717,6950.172,96.107,574.53,569.544,0.0
56449.0,STARLINK-5993,PAYLOAD,2023-09-03 18:09:10,14.9833617,0.0003588,69.9983,299.0874,269.0139,91.0609,-1.543e-06,-1.12e-06,0.0,0 STARLINK-5993,1 56449U 23064B   23246.75637589 -.00000112  00000-0 -15430-5 0  9994,2 56449  69.9983 299.0874 0003588 269.0139  91.0609 14.98336170 18104,6950.174,96.107,574.533,569.545,0.0
56449.0,STARLINK-5993,PAYLOAD,2023-09-04 02:09:52,14.98325041,0.0003583,69.9982,298.2453,268.9841,91.0908,-0.00017214,-2.146e-05,0.0,0 STARLINK-5993,1 56449U 23064B   23247.09018734 -.00002146  00000-0 -17214-3 0  9996,2 56449  69.9982 298.2453 0003583 268.9841  91.0908 14.98325041 18152,6950.208,96.107,574.563,569.583,0.0
56449.0,STARLINK-5993,PAYLOAD,2023-09-04 13:22:48,14.98322986,0.0003587,69.9981,297.0671,268.8107,91.2641,-6.4141e-05,-8.58e-06,0.0,0 STARLINK-5993,1 56449U 23064B   23247.55750824 -.00000858  00000-0 -64141-4 0  9990,2 56449  69.9981 297.0671 0003587 268.8107  91.2641 14.98322986 17866,6950.215,96.107,574.573,569.587,0.0
56449.0,STARLINK-5993,PAYLOAD,2023-09-05 13:24:49,14.98327658,0.0003576,69.9979,294.5423,270.3569,89.718,-5.1712e-06,-1.55e-06,0.0,0 STARLINK-5993,1 56449U 23064B   23248.55890647 -.00000155  00000-0 -51712-5 0  9990,2 56449  69.9979 294.5423 0003576 270.3569  89.7180 14.98327658 18017,6950.2,96.107,574.551,569.58,0.0
56449.0,STARLINK-5993,PAYLOAD,2023-09-05 19:49:21,14.98331103,0.0003574,69.9979,293.8689,270.4284,89.6466,1.5419e-06,-7.5e-07,0.0,0 STARLINK-5993,1 56449U 23064B   23248.82594427 -.00000075  00000-0  15419-5 0  9991,2 56449  69.9979 293.8689 0003574 270.4284  89.6466 14.98331103 18416,6950.189,96.107,574.538,569.57,0.0
56449.0,STARLINK-5993,PAYLOAD,2023-09-06 02:13:53,14.98335263,0.0003593,69.9978,293.1956,269.7072,90.3675,-1.1067e-05,-2.25e-06,0.0,0 STARLINK-5993,1 56449U 23064B   23249.09298141 -.00000225  00000-0 -11067-4 0  9997,2 56449  69.9978 293.1956 0003593 269.7072  90.3675 14.98335263 18098,6950.177,96.107,574.539,569.544,0.0
56449.0,STARLINK-5993,PAYLOAD,2023-09-06 23:03:38,14.98331366,0.000362,69.9977,291.0072,271.0208,89.0536,9.2731e-05,1.014e-05,0.0,0 STARLINK-5993,1 56449U 23064B   23249.96086167  .00001014  00000-0  92731-4 0  9998,2 56449  69.9977 291.0072 0003620 271.0208  89.0536 14.98331366 18586,6950.189,96.107,574.57,569.538,0.0
56449.0,STARLINK-5993,PAYLOAD,2023-09-07 08:40:27,14.98328817,0.000356,69.9983,289.9975,268.7079,91.3672,1.8698e-05,1.3e-06,0.0,0 STARLINK-5993,1 56449U 23064B   23250.36142485  .00000130  00000-0  18698-4 0  9998,2 56449  69.9983 289.9975 0003560 268.7079  91.3672 14.98328817 18284,6950.197,96.107,574.536,569.587,0.0
56449.0,STARLINK-5993,PAYLOAD,2023-09-07 19:53:23,14.98331897,0.0003654,69.998,288.8186,268.1575,91.9166,2.9031e-05,2.53e-06,0.0,0 STARLINK-5993,1 56449U 23064B   23250.82874217  .00000253  00000-0  29031-4 0  9993,2 56449  69.9980 288.8186 0003654 268.1575  91.9166 14.98331897 18356,6950.187,96.107,574.592,569.512,0.0
56449.0,STARLINK-5993,PAYLOAD,2023-09-08 10:18:35,14.98333131,0.0003598,69.9979,287.3039,268.9477,91.127,-3.2941e-05,-4.86e-06,0.0,0 STARLINK-5993,1 56449U 23064B   23251.42958101 -.00000486  00000-0 -32941-4 0  9999,2 56449  69.9979 287.3039 0003598 268.9477  91.1270 14.98333131 18802,6950.183,96.107,574.549,569.548,0.0
56449.0,STARLINK-5993,PAYLOAD,2023-09-08 11:54:43,14.98334596,0.0003634,69.9979,287.1356,268.5102,91.5641,-3.9471e-05,-5.64e-06,0.0,0 STARLINK-5993,1 56449U 23064B   23251.49634014 -.00000564  00000-0 -39471-4 0  9992,2 56449  69.9979 287.1356 0003634 268.5102  91.5641 14.98334596 18457,6950.179,96.107,574.569,569.518,0.0
56449.0,STARLINK-5993,PAYLOAD,2023-09-09 10:20:36,14.9834627,0.0003736,69.9979,284.7783,269.5813,90.4918,-0.00032953,-4.025e-05,0.0,0 STARLINK-5993,1 56449U 23064B   23252.43097793 -.00004025  00000-0 -32953-3 0  9997,2 56449  69.9979 284.7783 0003736 269.5813  90.4918 14.98346270 18959,6950.143,96.106,574.604,569.411,0.0
